{"type": "FeatureCollection", "features": [ {"type": "Feature", "properties": {"norad_id": 34375, "name": "IRIDIUM 33 DEB", "group": "iridium-33-debris", "lat": -21.27511512635521, "lon": 6.826959484177768, "alt_km": 792.6725475509793, "timestamp": "2025-12-05T22:40:48.934765+00:00", "meta": {"OBJECT_NAME": "IRIDIUM 33 DEB", "OBJECT_ID": "1997-051FT", "EPOCH": "2025-12-04T13:42:06.507360", "MEAN_MOTION": 14.17970346, "ECCENTRICITY": 0.0102617, "INCLINATION": 86.4331, "RA_OF_ASC_NODE": 185.989, "ARG_OF_PERICENTER": 152.4354, "MEAN_ANOMALY": 237.8204, "EPHEMERIS_TYPE": 0, "CLASSIFICATION_TYPE": "U", "NORAD_CAT_ID": 34375, "ELEMENT_SET_NO": 999, "REV_AT_EPOCH": 86596, "BSTAR": 0.0006989, "MEAN_MOTION_DOT": 1.525e-05, "MEAN_MOTION_DDOT": 0}, "tle": {"line1": "1 34375U 97051FT  25338.57090865  .00001525  00000+0  69890-3 0  9992", "line2": "2 34375  86.4331 185.9890 0102617 152.4354 237.8204 14.17970346865962"}}, "geometry": {"type": "Point", "coordinates": [6.826959484177768, -21.27511512635521]}}, {"type": "Feature", "properties": {"norad_id": 34376, "name": "IRIDIUM 33 DEB", "group": "iridium-33-debris", "lat": -25.574199917952637, "lon": -168.62973825712677, "alt_km": 673.2071192949352, "timestamp": "2025-12-05T22:40:48.934776+00:00", "meta": {"OBJECT_NAME": "IRIDIUM 33 DEB", "OBJECT_ID": "1997-051FU", "EPOCH": "2025-12-05T02:02:13.782336", "MEAN_MOTION": 14.62400961, "ECCENTRICITY": 0.002628, "INCLINATION": 86.2986, "RA_OF_ASC_NODE": 9.9814, "ARG_OF_PERICENTER": 192.764, "MEAN_ANOMALY": 167.2909, "EPHEMERIS_TYPE": 0, "CLASSIFICATION_TYPE": "U", "NORAD_CAT_ID": 34376, "ELEMENT_SET_NO": 999, "REV_AT_EPOCH": 87895, "BSTAR": 0.0031192518, "MEAN_MOTION_DOT": 0.00015894, "MEAN_MOTION_DDOT": 0}, "tle": {"line1": "1 34376U 97051FU  25339.08488174  .00015894  00000+0  31193-2 0  9992", "line2": "2 34376  86.2986   9.9814 0026280 192.7640 167.2909 14.62400961878956"}}, "geometry": {"type": "Point", "coordinates": [-168.62973825712677, -25.574199917952637]}}, {"type": "Feature", "properties": {"norad_id": 34486, "name": "IRIDIUM 33 DEB", "group": "iridium-33-debris", "lat": -25.71997821578459, "lon": 13.419251643596413, "alt_km": 595.6931412827735, "timestamp": "2025-12-05T22:40:48.934787+00:00", "meta": {"OBJECT_NAME": "IRIDIUM 33 DEB", "OBJECT_ID": "1997-051GB", "EPOCH": "2025-12-05T02:10:05.865888", "MEAN_MOTION": 14.95275155, "ECCENTRICITY": 0.00131555, "INCLINATION": 86.3935, "RA_OF_ASC_NODE": 15.5543, "ARG_OF_PERICENTER": 137.9158, "MEAN_ANOMALY": 278.7731, "EPHEMERIS_TYPE": 0, "CLASSIFICATION_TYPE": "U", "NORAD_CAT_ID": 34486, "ELEMENT_SET_NO": 999, "REV_AT_EPOCH": 88872, "BSTAR": 0.0041966541, "MEAN_MOTION_DOT": 0.00046542, "MEAN_MOTION_DDOT": 0}, "tle": {"line1": "1 34486U 97051GB  25339.09034567  .00046542  00000+0  41967-2 0  9992", "line2": "2 34486  86.3935  15.5543 0013155 137.9158 278.7731 14.95275155888725"}}, "geometry": {"type": "Point", "coordinates": [13.419251643596413, -25.71997821578459]}}, {"type": "Feature", "properties": {"norad_id": 34487, "name": "IRIDIUM 33 DEB", "group": "iridium-33-debris", "lat": -8.707590530920802, "lon": -164.13625574316012, "alt_km": 734.2105911728422, "timestamp": "2025-12-05T22:40:48.934797+00:00", "meta": {"OBJECT_NAME": "IRIDIUM 33 DEB", "OBJECT_ID": "1997-051GC", "EPOCH": "2025-12-05T03:47:55.823136", "MEAN_MOTION": 14.43201704, "ECCENTRICITY": 0.00320969, "INCLINATION": 86.3441, "RA_OF_ASC_NODE": 15.6412, "ARG_OF_PERICENTER": 152.3675, "MEAN_ANOMALY": 271.1531, "EPHEMERIS_TYPE": 0, "CLASSIFICATION_TYPE": "U", "NORAD_CAT_ID": 34487, "ELEMENT_SET_NO": 999, "REV_AT_EPOCH": 88139, "BSTAR": 0.00037326902, "MEAN_MOTION_DOT": 1.282e-05, "MEAN_MOTION_DDOT": 0}, "tle": {"line1": "1 34487U 97051GC  25339.15828499  .00001282  00000+0  37327-3 0  9993", "line2": "2 34487  86.3441  15.6412 0032096 152.3675 271.1531 14.43201704881397"}}, "geometry": {"type": "Point", "coordinates": [-164.13625574316012, -8.707590530920802]}}, {"type": "Feature", "properties": {"norad_id": 34488, "name": "IRIDIUM 33 DEB", "group": "iridium-33-debris", "lat": -60.798835871633905, "lon": 135.7766746867094, "alt_km": 502.2041293268012, "timestamp": "2025-12-05T22:40:48.934808+00:00", "meta": {"OBJECT_NAME": "IRIDIUM 33 DEB", "OBJECT_ID": "1997-051GD", "EPOCH": "2025-12-05T02:45:16.295616", "MEAN_MOTION": 15.26768801, "ECCENTRICITY": 0.00152686, "INCLINATION": 86.3248, "RA_OF_ASC_NODE": 309.5823, "ARG_OF_PERICENTER": 62.928, "MEAN_ANOMALY": 297.3523, "EPHEMERIS_TYPE": 0, "CLASSIFICATION_TYPE": "U", "NORAD_CAT_ID": 34488, "ELEMENT_SET_NO": 999, "REV_AT_EPOCH": 89123, "BSTAR": 0.0076636446, "MEAN_MOTION_DOT": 0.00207511, "MEAN_MOTION_DDOT": 0}, "tle": {"line1": "1 34488U 97051GD  25339.11477194  .00207511  00000+0  76636-2 0  9990", "line2": "2 34488  86.3248 309.5823 0015268  62.9280 297.3523 15.26768801891237"}}, "geometry": {"type": "Point", "coordinates": [135.7766746867094, -60.798835871633905]}}, {"type": "Feature", "properties": {"norad_id": 34492, "name": "IRIDIUM 33 DEB", "group": "iridium-33-debris", "lat": -9.163216191345148, "lon": -23.193471913897678, "alt_km": 809.9151761328603, "timestamp": "2025-12-05T22:40:48.934819+00:00", "meta": {"OBJECT_NAME": "IRIDIUM 33 DEB", "OBJECT_ID": "1997-051GH", "EPOCH": "2025-12-04T06:22:25.668768", "MEAN_MOTION": 14.2534836, "ECCENTRICITY": 0.0190073, "INCLINATION": 86.4709, "RA_OF_ASC_NODE": 338.0551, "ARG_OF_PERICENTER": 265.7011, "MEAN_ANOMALY": 110.4059, "EPHEMERIS_TYPE": 0, "CLASSIFICATION_TYPE": "U", "NORAD_CAT_ID": 34492, "ELEMENT_SET_NO": 999, "REV_AT_EPOCH": 84938, "BSTAR": 0.015697, "MEAN_MOTION_DOT": 0.00044922, "MEAN_MOTION_DDOT": 0}, "tle": {"line1": "1 34492U 97051GH  25338.26557487  .00044922  00000+0  15697-1 0  9998", "line2": "2 34492  86.4709 338.0551 0190073 265.7011 110.4059 14.25348360849383"}}, "geometry": {"type": "Point", "coordinates": [-23.193471913897678, -9.163216191345148]}}, {"type": "Feature", "properties": {"norad_id": 34497, "name": "IRIDIUM 33 DEB", "group": "iridium-33-debris", "lat": -1.8128848280809624, "lon": -124.57762959728356, "alt_km": 860.7758935757374, "timestamp": "2025-12-05T22:40:48.934830+00:00", "meta": {"OBJECT_NAME": "IRIDIUM 33 DEB", "OBJECT_ID": "1997-051GN", "EPOCH": "2025-12-05T05:08:17.522880", "MEAN_MOTION": 14.27419297, "ECCENTRICITY": 0.00795949, "INCLINATION": 86.2787, "RA_OF_ASC_NODE": 55.6164, "ARG_OF_PERICENTER": 4.0623, "MEAN_ANOMALY": 24.0045, "EPHEMERIS_TYPE": 0, "CLASSIFICATION_TYPE": "U", "NORAD_CAT_ID": 34497, "ELEMENT_SET_NO": 999, "REV_AT_EPOCH": 86776, "BSTAR": 0.0011650862, "MEAN_MOTION_DOT": 2.973e-05, "MEAN_MOTION_DDOT": 0}, "tle": {"line1": "1 34497U 97051GN  25339.21409170  .00002973  00000+0  11651-2 0  9991", "line2": "2 34497  86.2787  55.6164 0079594   4.0623  24.0045 14.27419297867768"}}, "geometry": {"type": "Point", "coordinates": [-124.57762959728356, -1.8128848280809624]}}, {"type": "Feature", "properties": {"norad_id": 34508, "name": "IRIDIUM 33 DEB", "group": "iridium-33-debris", "lat": 71.51818983983186, "lon": 116.47079606213455, "alt_km": 782.5780822997258, "timestamp": "2025-12-05T22:40:48.934845+00:00", "meta": {"OBJECT_NAME": "IRIDIUM 33 DEB", "OBJECT_ID": "1997-051GZ", "EPOCH": "2025-12-04T19:37:43.017600", "MEAN_MOTION": 14.3831015, "ECCENTRICITY": 0.00655735, "INCLINATION": 86.3702, "RA_OF_ASC_NODE": 106.0007, "ARG_OF_PERICENTER": 198.7419, "MEAN_ANOMALY": 161.1365, "EPHEMERIS_TYPE": 0, "CLASSIFICATION_TYPE": "U", "NORAD_CAT_ID": 34508, "ELEMENT_SET_NO": 999, "REV_AT_EPOCH": 87195, "BSTAR": 0.003931661, "MEAN_MOTION_DOT": 0.00012296, "MEAN_MOTION_DDOT": 0}, "tle": {"line1": "1 34508U 97051GZ  25338.81785900  .00012296  00000+0  39317-2 0  9995", "line2": "2 34508  86.3702 106.0007 0065573 198.7419 161.1365 14.38310150871956"}}, "geometry": {"type": "Point", "coordinates": [116.47079606213455, 71.51818983983186]}}, {"type": "Feature", "properties": {"norad_id": 34521, "name": "IRIDIUM 33 DEB", "group": "iridium-33-debris", "lat": 0.9958550417749077, "lon": 33.60263423128789, "alt_km": 685.535518700678, "timestamp": "2025-12-05T22:40:48.934855+00:00", "meta": {"OBJECT_NAME": "IRIDIUM 33 DEB", "OBJECT_ID": "1997-051HN", "EPOCH": "2025-12-05T04:37:19.918560", "MEAN_MOTION": 14.63261788, "ECCENTRICITY": 0.00010777, "INCLINATION": 86.3806, "RA_OF_ASC_NODE": 33.8706, "ARG_OF_PERICENTER": 276.7472, "MEAN_ANOMALY": 83.3617, "EPHEMERIS_TYPE": 0, "CLASSIFICATION_TYPE": "U", "NORAD_CAT_ID": 34521, "ELEMENT_SET_NO": 999, "REV_AT_EPOCH": 88362, "BSTAR": 0.0018603871, "MEAN_MOTION_DOT": 9.614e-05, "MEAN_MOTION_DDOT": 0}, "tle": {"line1": "1 34521U 97051HN  25339.19259165  .00009614  00000+0  18604-2 0  9997", "line2": "2 34521  86.3806  33.8706 0001077 276.7472  83.3617 14.63261788883626"}}, "geometry": {"type": "Point", "coordinates": [33.60263423128789, 0.9958550417749077]}}, {"type": "Feature", "properties": {"norad_id": 34525, "name": "IRIDIUM 33 DEB", "group": "iridium-33-debris", "lat": -40.963103786544714, "lon": 46.5881021638035, "alt_km": 759.71220527492, "timestamp": "2025-12-05T22:40:48.934865+00:00", "meta": {"OBJECT_NAME": "IRIDIUM 33 DEB", "OBJECT_ID": "1997-051HS", "EPOCH": "2025-12-05T04:49:54.194016", "MEAN_MOTION": 14.42876479, "ECCENTRICITY": 0.00065277, "INCLINATION": 86.3738, "RA_OF_ASC_NODE": 50.0613, "ARG_OF_PERICENTER": 112.5564, "MEAN_ANOMALY": 305.983, "EPHEMERIS_TYPE": 0, "CLASSIFICATION_TYPE": "U", "NORAD_CAT_ID": 34525, "ELEMENT_SET_NO": 999, "REV_AT_EPOCH": 87979, "BSTAR": 0.00079428209, "MEAN_MOTION_DOT": 2.671e-05, "MEAN_MOTION_DDOT": 0}, "tle": {"line1": "1 34525U 97051HS  25339.20132169  .00002671  00000+0  79428-3 0  9995", "line2": "2 34525  86.3738  50.0613 0006527 112.5564 305.9830 14.42876479879795"}}, "geometry": {"type": "Point", "coordinates": [46.5881021638035, -40.963103786544714]}}]}